STARLINK-1559           
1 46077U 20055BC  26068.23360559  .00042685  00000+0  14779-2 0  9995
2 46077  53.0254  76.0659 0004229  33.9710 326.1559 15.29461733309518
STARLINK-34272          
1 64274U 25120U   26068.43599201  .00021566  00000+0  73817-3 0  9996
2 64274  53.1581 118.1285 0001214  90.0246 270.0894 15.30199174 43774
